[{"OBJECT_NAME":"STARLINK-36155","OBJECT_ID":"2025-286P","EPOCH":"2026-03-09T22:41:26.860992","MEAN_MOTION":15.30215386,"ECCENTRICITY":0.00011913,"INCLINATION":53.1617,"RA_OF_ASC_NODE":357.4215,"ARG_OF_PERICENTER":117.9183,"MEAN_ANOMALY":242.1938,"EPHEMERIS_TYPE":0,"CLASSIFICATION_TYPE":"U","NORAD_CAT_ID":66938,"ELEMENT_SET_NO":999,"REV_AT_EPOCH":1545,"BSTAR":0.0011487825,"MEAN_MOTION_DOT":0.00033836,"MEAN_MOTION_DDOT":0},{"OBJECT_NAME":"SPACEMOBILE-001 DEB","OBJECT_ID":"2024-163F","EPOCH":"2026-03-09T07:17:56.452704","MEAN_MOTION":15.32884299,"ECCENTRICITY":0.00071876,"INCLINATION":52.9956,"RA_OF_ASC_NODE":27.518,"ARG_OF_PERICENTER":196.7865,"MEAN_ANOMALY":163.2898,"EPHEMERIS_TYPE":0,"CLASSIFICATION_TYPE":"U","NORAD_CAT_ID":62369,"ELEMENT_SET_NO":999,"REV_AT_EPOCH":7117,"BSTAR":0.00044817004,"MEAN_MOTION_DOT":0.00014099,"MEAN_MOTION_DDOT":0}]
